STARLINK-31236          
1 58841U 24017R   26068.61950779  .00002543  00000+0  98051-4 0  9996
2 58841  53.1612 204.7704 0001583  54.8308 305.2841 15.30170772120048
TRANSPORTER-11 OBJECT A 
1 60468U 24149A   26068.74646182  .00010774  00000+0  36054-3 0  9993
2 60468  97.3780 149.0949 0003110 191.0010 169.1164 15.31141332 86830
